WGS F4 (USA 233)        
1 38070U 12003A   26087.49097923 -.00000233  00000+0  00000+0 0  9997
2 38070   0.0131 174.1150 0000769 153.4502 123.4562  1.00266232 43334
SES-4                   
1 38087U 12007A   26087.32647981 -.00000188  00000+0  00000+0 0  9995
2 38087   0.0329  63.3796 0002232 310.2546 267.6426  1.00271438 51416
BEIDOU-2 G5             
1 38091U 12008A   26087.77030101  .00000040  00000+0  00000+0 0  9996
2 38091   3.3737  70.1492 0013524 257.9410 194.1039  1.00273190 51569
INTELSAT 22 (IS-22)     
1 38098U 12011A   26087.84423134 -.00000078  00000+0  00000+0 0  9999
2 38098   0.0229 113.2720 0001715 254.6822 194.3061  1.00271379  6383
COSMOS 2479             
1 38101U 12012A   26087.62010701  .00000111  00000+0  00000+0 0  9990
2 38101   8.6665  57.1371 0006619 245.8060 126.8318  1.00349442 51289
SL-12 R/B(2)            
1 38104U 12012D   26087.65529384  .00000111  00000+0  00000+0 0  9998
2 38104   8.6548  57.3443 0012725 299.4150 263.5047  1.00333800 51250
APSTAR-7                
1 38107U 12013A   26087.88725138 -.00000121  00000+0  00000+0 0  9994
2 38107   0.0245 120.3273 0002451 254.7464 207.1175  1.00271464 51008
YAHSAT 1B               
1 38245U 12016A   26087.19760594  .00000107  00000+0  00000+0 0  9992
2 38245   0.0894  88.8710 0002760 275.5050 299.9651  1.00271576 44790
AEHF-2 (USA 235)        
1 38254U 12019A   26087.75539429 -.00000149  00000+0  00000+0 0  9995
2 38254   6.4645  58.0655 0002944 298.2036  85.3799  1.00271755  6181
JCSAT-13                
1 38331U 12023A   26087.71188742 -.00000376  00000+0  00000+0 0  9992
2 38331   0.0189 106.9419 0002297 283.5244 175.9151  1.00269353 50739
VINASAT-2               
1 38332U 12023B   26087.85610473 -.00000348  00000+0  00000+0 0  9998
2 38332   0.0347  43.5478 0002664 337.0896 245.6596  1.00272135 45850
NIMIQ 6                 
1 38342U 12026A   26087.59800693 -.00000193  00000+0  00000+0 0  9996
2 38342   0.0222  91.0685 0002547 266.2408 312.8672  1.00272292 49606
ZHONGXING-2A            
1 38352U 12028A   26087.85808844 -.00000311  00000+0  00000+0 0  9996
2 38352   1.2467  84.9226 0000654 296.7553 211.7379  1.00269197 50499
INTELSAT 19 (IS-19)     
1 38356U 12030A   26087.77197419  .00000000  00000+0  00000+0 0  9997
2 38356   0.0228 179.3557 0003090 198.9521 251.7976  1.00269418 49644
ECHOSTAR 17             
1 38551U 12035A   26087.59480025 -.00000095  00000+0  00000+0 0  9992
2 38551   0.0188 155.0439 0002032 213.0951 284.8859  1.00271184 50256
METEOSAT-10 (MSG-3)     
1 38552U 12035B   26087.75868764 -.00000023  00000+0  00000+0 0  9992
2 38552   4.4824  61.3529 0002458 284.8080 113.1895  1.00271341 50059
SES-5                   
1 38652U 12036A   26087.84836296  .00000014  00000+0  00000+0 0  9998
2 38652   0.0628 304.7555 0002108  56.5266 135.3475  1.00271932 43653
