[{"OBJECT_NAME":"WGS F4 (USA 233)","OBJECT_ID":"2012-003A","EPOCH":"2026-03-28T11:47:00.605472","MEAN_MOTION":1.00266232,"ECCENTRICITY":7.69e-5,"INCLINATION":0.0131,"RA_OF_ASC_NODE":174.115,"ARG_OF_PERICENTER":153.4502,"MEAN_ANOMALY":123.4562,"EPHEMERIS_TYPE":0,"CLASSIFICATION_TYPE":"U","NORAD_CAT_ID":38070,"ELEMENT_SET_NO":999,"REV_AT_EPOCH":4333,"BSTAR":0,"MEAN_MOTION_DOT":-2.33e-6,"MEAN_MOTION_DDOT":0},{"OBJECT_NAME":"SES-4","OBJECT_ID":"2012-007A","EPOCH":"2026-03-28T07:50:07.855584","MEAN_MOTION":1.00271438,"ECCENTRICITY":0.0002232,"INCLINATION":0.0329,"RA_OF_ASC_NODE":63.3796,"ARG_OF_PERICENTER":310.2546,"MEAN_ANOMALY":267.6426,"EPHEMERIS_TYPE":0,"CLASSIFICATION_TYPE":"U","NORAD_CAT_ID":38087,"ELEMENT_SET_NO":999,"REV_AT_EPOCH":5141,"BSTAR":0,"MEAN_MOTION_DOT":-1.88e-6,"MEAN_MOTION_DDOT":0},{"OBJECT_NAME":"BEIDOU-2 G5","OBJECT_ID":"2012-008A","EPOCH":"2026-03-28T18:29:14.007264","MEAN_MOTION":1.0027319,"ECCENTRICITY":0.0013524,"INCLINATION":3.3737,"RA_OF_ASC_NODE":70.1492,"ARG_OF_PERICENTER":257.941,"MEAN_ANOMALY":194.1039,"EPHEMERIS_TYPE":0,"CLASSIFICATION_TYPE":"U","NORAD_CAT_ID":38091,"ELEMENT_SET_NO":999,"REV_AT_EPOCH":5156,"BSTAR":0,"MEAN_MOTION_DOT":4.0e-7,"MEAN_MOTION_DDOT":0},{"OBJECT_NAME":"INTELSAT 22 (IS-22)","OBJECT_ID":"2012-011A","EPOCH":"2026-03-28T20:15:41.587776","MEAN_MOTION":1.00271379,"ECCENTRICITY":0.0001715,"INCLINATION":0.0229,"RA_OF_ASC_NODE":113.272,"ARG_OF_PERICENTER":254.6822,"MEAN_ANOMALY":194.3061,"EPHEMERIS_TYPE":0,"CLASSIFICATION_TYPE":"U","NORAD_CAT_ID":38098,"ELEMENT_SET_NO":999,"REV_AT_EPOCH":638,"BSTAR":0,"MEAN_MOTION_DOT":-7.8e-7,"MEAN_MOTION_DDOT":0},{"OBJECT_NAME":"COSMOS 2479","OBJECT_ID":"2012-012A","EPOCH":"2026-03-28T14:52:57.245664","MEAN_MOTION":1.00349442,"ECCENTRICITY":0.0006619,"INCLINATION":8.6665,"RA_OF_ASC_NODE":57.1371,"ARG_OF_PERICENTER":245.806,"MEAN_ANOMALY":126.8318,"EPHEMERIS_TYPE":0,"CLASSIFICATION_TYPE":"U","NORAD_CAT_ID":38101,"ELEMENT_SET_NO":999,"REV_AT_EPOCH":5128,"BSTAR":0,"MEAN_MOTION_DOT":1.11e-6,"MEAN_MOTION_DDOT":0},{"OBJECT_NAME":"SL-12 R/B(2)","OBJECT_ID":"2012-012D","EPOCH":"2026-03-28T15:43:37.387776","MEAN_MOTION":1.003338,"ECCENTRICITY":0.0012725,"INCLINATION":8.6548,"RA_OF_ASC_NODE":57.3443,"ARG_OF_PERICENTER":299.415,"MEAN_ANOMALY":263.5047,"EPHEMERIS_TYPE":0,"CLASSIFICATION_TYPE":"U","NORAD_CAT_ID":38104,"ELEMENT_SET_NO":999,"REV_AT_EPOCH":5125,"BSTAR":0,"MEAN_MOTION_DOT":1.11e-6,"MEAN_MOTION_DDOT":0},{"OBJECT_NAME":"APSTAR-7","OBJECT_ID":"2012-013A","EPOCH":"2026-03-28T21:17:38.519232","MEAN_MOTION":1.00271464,"ECCENTRICITY":0.0002451,"INCLINATION":0.0245,"RA_OF_ASC_NODE":120.3273,"ARG_OF_PERICENTER":254.7464,"MEAN_ANOMALY":207.1175,"EPHEMERIS_TYPE":0,"CLASSIFICATION_TYPE":"U","NORAD_CAT_ID":38107,"ELEMENT_SET_NO":999,"REV_AT_EPOCH":5100,"BSTAR":0,"MEAN_MOTION_DOT":-1.21e-6,"MEAN_MOTION_DDOT":0},{"OBJECT_NAME":"YAHSAT 1B","OBJECT_ID":"2012-016A","EPOCH":"2026-03-28T04:44:33.153216","MEAN_MOTION":1.00271576,"ECCENTRICITY":0.000276,"INCLINATION":0.0894,"RA_OF_ASC_NODE":88.871,"ARG_OF_PERICENTER":275.505,"MEAN_ANOMALY":299.9651,"EPHEMERIS_TYPE":0,"CLASSIFICATION_TYPE":"U","NORAD_CAT_ID":38245,"ELEMENT_SET_NO":999,"REV_AT_EPOCH":4479,"BSTAR":0,"MEAN_MOTION_DOT":1.07e-6,"MEAN_MOTION_DDOT":0},{"OBJECT_NAME":"AEHF-2 (USA 235)","OBJECT_ID":"2012-019A","EPOCH":"2026-03-28T18:07:46.066656","MEAN_MOTION":1.00271755,"ECCENTRICITY":0.0002944,"INCLINATION":6.4645,"RA_OF_ASC_NODE":58.0655,"ARG_OF_PERICENTER":298.2036,"MEAN_ANOMALY":85.3799,"EPHEMERIS_TYPE":0,"CLASSIFICATION_TYPE":"U","NORAD_CAT_ID":38254,"ELEMENT_SET_NO":999,"REV_AT_EPOCH":618,"BSTAR":0,"MEAN_MOTION_DOT":-1.49e-6,"MEAN_MOTION_DDOT":0},{"OBJECT_NAME":"JCSAT-13","OBJECT_ID":"2012-023A","EPOCH":"2026-03-28T17:05:07.073088","MEAN_MOTION":1.00269353,"ECCENTRICITY":0.0002297,"INCLINATION":0.0189,"RA_OF_ASC_NODE":106.9419,"ARG_OF_PERICENTER":283.5244,"MEAN_ANOMALY":175.9151,"EPHEMERIS_TYPE":0,"CLASSIFICATION_TYPE":"U","NORAD_CAT_ID":38331,"ELEMENT_SET_NO":999,"REV_AT_EPOCH":5073,"BSTAR":0,"MEAN_MOTION_DOT":-3.76e-6,"MEAN_MOTION_DDOT":0},{"OBJECT_NAME":"VINASAT-2","OBJECT_ID":"2012-023B","EPOCH":"2026-03-28T20:32:47.448672","MEAN_MOTION":1.00272135,"ECCENTRICITY":0.0002664,"INCLINATION":0.0347,"RA_OF_ASC_NODE":43.5478,"ARG_OF_PERICENTER":337.0896,"MEAN_ANOMALY":245.6596,"EPHEMERIS_TYPE":0,"CLASSIFICATION_TYPE":"U","NORAD_CAT_ID":38332,"ELEMENT_SET_NO":999,"REV_AT_EPOCH":4585,"BSTAR":0,"MEAN_MOTION_DOT":-3.48e-6,"MEAN_MOTION_DDOT":0},{"OBJECT_NAME":"NIMIQ 6","OBJECT_ID":"2012-026A","EPOCH":"2026-03-28T14:21:07.798752","MEAN_MOTION":1.00272292,"ECCENTRICITY":0.0002547,"INCLINATION":0.0222,"RA_OF_ASC_NODE":91.0685,"ARG_OF_PERICENTER":266.2408,"MEAN_ANOMALY":312.8672,"EPHEMERIS_TYPE":0,"CLASSIFICATION_TYPE":"U","NORAD_CAT_ID":38342,"ELEMENT_SET_NO":999,"REV_AT_EPOCH":4960,"BSTAR":0,"MEAN_MOTION_DOT":-1.93e-6,"MEAN_MOTION_DDOT":0},{"OBJECT_NAME":"ZHONGXING-2A","OBJECT_ID":"2012-028A","EPOCH":"2026-03-28T20:35:38.841216","MEAN_MOTION":1.00269197,"ECCENTRICITY":6.54e-5,"INCLINATION":1.2467,"RA_OF_ASC_NODE":84.9226,"ARG_OF_PERICENTER":296.7553,"MEAN_ANOMALY":211.7379,"EPHEMERIS_TYPE":0,"CLASSIFICATION_TYPE":"U","NORAD_CAT_ID":38352,"ELEMENT_SET_NO":999,"REV_AT_EPOCH":5049,"BSTAR":0,"MEAN_MOTION_DOT":-3.11e-6,"MEAN_MOTION_DDOT":0},{"OBJECT_NAME":"INTELSAT 19 (IS-19)","OBJECT_ID":"2012-030A","EPOCH":"2026-03-28T18:31:38.570016","MEAN_MOTION":1.00269418,"ECCENTRICITY":0.000309,"INCLINATION":0.0228,"RA_OF_ASC_NODE":179.3557,"ARG_OF_PERICENTER":198.9521,"MEAN_ANOMALY":251.7976,"EPHEMERIS_TYPE":0,"CLASSIFICATION_TYPE":"U","NORAD_CAT_ID":38356,"ELEMENT_SET_NO":999,"REV_AT_EPOCH":4964,"BSTAR":0,"MEAN_MOTION_DOT":0,"MEAN_MOTION_DDOT":0},{"OBJECT_NAME":"ECHOSTAR 17","OBJECT_ID":"2012-035A","EPOCH":"2026-03-28T14:16:30.741600","MEAN_MOTION":1.00271184,"ECCENTRICITY":0.0002032,"INCLINATION":0.0188,"RA_OF_ASC_NODE":155.0439,"ARG_OF_PERICENTER":213.0951,"MEAN_ANOMALY":284.8859,"EPHEMERIS_TYPE":0,"CLASSIFICATION_TYPE":"U","NORAD_CAT_ID":38551,"ELEMENT_SET_NO":999,"REV_AT_EPOCH":5025,"BSTAR":0,"MEAN_MOTION_DOT":-9.5e-7,"MEAN_MOTION_DDOT":0},{"OBJECT_NAME":"METEOSAT-10 (MSG-3)","OBJECT_ID":"2012-035B","EPOCH":"2026-03-28T18:12:30.612096","MEAN_MOTION":1.00271341,"ECCENTRICITY":0.0002458,"INCLINATION":4.4824,"RA_OF_ASC_NODE":61.3529,"ARG_OF_PERICENTER":284.808,"MEAN_ANOMALY":113.1895,"EPHEMERIS_TYPE":0,"CLASSIFICATION_TYPE":"U","NORAD_CAT_ID":38552,"ELEMENT_SET_NO":999,"REV_AT_EPOCH":5005,"BSTAR":0,"MEAN_MOTION_DOT":-2.3e-7,"MEAN_MOTION_DDOT":0},{"OBJECT_NAME":"SES-5","OBJECT_ID":"2012-036A","EPOCH":"2026-03-28T20:21:38.559744","MEAN_MOTION":1.00271932,"ECCENTRICITY":0.0002108,"INCLINATION":0.0628,"RA_OF_ASC_NODE":304.7555,"ARG_OF_PERICENTER":56.5266,"MEAN_ANOMALY":135.3475,"EPHEMERIS_TYPE":0,"CLASSIFICATION_TYPE":"U","NORAD_CAT_ID":38652,"ELEMENT_SET_NO":999,"REV_AT_EPOCH":4365,"BSTAR":0,"MEAN_MOTION_DOT":1.4e-7,"MEAN_MOTION_DDOT":0}]
